#dP2022  7  4  0  0  0.00000000      97 __u+U IGS14 FIT  IAC
## 2217  86400.00000000   900.00000000 59764 0.0000000000000
+  116   C06C07C08C09C10C11C12C13C14C16C19C20C21C22C23C24C25
+        C26C27C28C29C30C32C33C34C35C36C37C38C39C40C41C42C43
+        C44C45C46E01E02E03E04E05E07E08E09E10E11E12E13E14E15
+        E18E19E21E24E25E26E27E30E31E33E34E36G01G02G03G04G05
+        G06G07G08G09G10G11G12G13G14G15G16G17G18G19G20G21G22
+        G23G24G25G26G27G28G29G30G31G32J02J03R01R02R03R04R05
+        R07R08R09R11R12R13R14R15R17R18R19R20R21R24  0  0  0
++         7  7  7  7  7  7  7  7  6  7  6  6  5  6  5  6  6
++         6  5  5  6  5  6  6  6  6  6  6  6  6  8  6  6  6
++         6  6  6  4  4  4  4  4  4  4  4  5  4  4  4  5  4
++         4  5  4  4  4  4  4  5  4  5  4  4  3  4  3  3  4
++         3  3  3  3  3  3  3  3  3  3  4  3  3  4  4  3  3
++         3  3  3  3  3  4  3  3  4  3  9  9  6  6  6  6  6
++         6  6  6  6  6  7  6  6  6  6  7  7  6  6  0  0  0
%c M  cc GPS ccc cccc cccc cccc cccc ccccc ccccc ccccc ccccc
%c cc cc ccc ccc cccc cccc cccc cccc ccccc ccccc ccccc ccccc
%f  1.2500000  1.025000000  0.00000000000  0.000000000000000
%f  0.0000000  0.000000000  0.00000000000  0.000000000000000
%i    0    0    0    0      0      0      0      0         0
%i    0    0    0    0      0      0      0      0         0
/* INFORMATION & ANALYSIS CENTER (IAC)            FINAL DATA
/* S/V CLOCKS ARE ALIGNED TO GNSS TIME                      
/* G:C1WC2W R:C1PC2P E:C1XC5X C:C2IC6I J:C1CC2S             
/* PCV:IGS14_2215 OL/AL:FES2004  NONE     YN ORB:CoN CLK:CoN
*  2022 07 04  8  0  0.00000000
PC06 -17423.640040  34968.707804 -16116.007406    321.784561
PC07  -1875.564518  37269.483930 -19421.695246   -383.511067
PC08  -6125.307535  20028.199527  36591.161755    390.120699
PC09 -12759.801326  33763.608859 -21822.539016   -938.920886
PC10   3422.429684  38992.575630 -14697.402539    121.394885
PC11  19661.226156 -19576.592107   3218.695570    453.566242
PC12  20345.202607  -5367.007336  18368.573843   -585.012864
PC13   -584.950733  22517.054688  35776.735062     14.102980
PC14   9928.169373 -15039.101428 -21304.202218    526.952736
PC16 -19476.682338  34814.488258 -13877.118646    142.242864
PC19  -3154.959965  22543.618382  16150.070118   -136.446056
PC20 -14275.720743   6793.769328  23007.770184   -964.294576
PC21  17523.699494  14120.436149 -16466.702634   -610.066927
PC22  10250.425248  25933.102323   -399.315684   -962.978883
PC23 -10799.866275 -16295.428390  19926.111621   -940.700779
PC24  25806.410999  -3192.839348  10154.783438   -968.318788
PC25   9375.703762 -14559.318241  21883.089677   -712.599833
PC26  26180.909042   7811.357508  -5777.001161    714.425077
PC27 -16764.629928  -3712.207653 -22024.780070    748.900420
PC28  -2609.935120 -18898.989129 -20370.148275     85.999489
PC29 -12909.474009  23923.480366   6292.749667    577.043820
PC30 -21095.453737  14085.661774 -11665.919668    500.690439
PC32 -17657.407289 -14056.377274  16438.938855   -973.811825
PC33   3061.977489 -22553.154795 -16157.183380    -84.185596
PC34  21001.955854 -14893.445092  10724.106780   -366.529806
PC35   2272.145704  19570.557852  19761.258849    350.065457
PC36 -10284.475691  14130.260326 -21725.108667   -972.366541
PC37 -25446.581926  -9123.879183   6909.552925   -913.436176
PC38 -15045.865607  19976.492460  33947.779734      7.694045
PC39 -21784.428340  35327.868126  -7925.716765     34.975951
PC40  -6120.724878  34155.194612 -23847.412041     -0.033210
PC41 -10095.427861 -26020.017582    -24.076917    -52.657381
PC42  14744.202635  -5699.760106 -22953.660010   -955.573994
PC43  13437.834887 -23792.156910  -5629.697886      0.964579
PC44  16845.223209   3410.819797  21963.699557    712.976944
PC45  11189.867180  16128.581157 -19832.362200    800.062385
PC46 -25025.172773   4228.587401 -11555.349391   -413.411820
PE01  -4495.083669  17144.527838 -23701.655853   -508.521429
PE02   4333.514829 -17243.736192  23665.240669    309.755867
PE03   8318.122160 -27865.097733  -5569.294075   -575.446843
PE04   4747.375649  26431.339869 -12436.227644  -1063.939608
PE05  16769.910593 -12921.099957 -20683.598293   -166.186796
PE07 -15345.648608  -9311.983735  23548.584507   -684.370712
PE08  -4897.313172 -26312.471584  12665.314677   -557.681233
PE09  15242.729798   9184.774233 -23643.504771   -575.663019
PE10  16020.932064   9590.626014  22954.412750   -523.991260
PE11  24088.739326   2441.806267  17002.293105   3131.002573
PE12   5874.417839  15014.661187  24813.708145    -44.109408
PE13 -23647.446112  -2874.291142 -17577.820265    429.633885
PE14   9443.559741  14132.826652  16169.714670  -1789.143327
PE15  -5727.088472 -14996.238703 -24871.598959    735.411804
PE18 -12735.374188 -19815.168719 -22362.583711  -1254.498228
PE19  -9818.049526  26780.341179   7919.578865  -5190.768359
PE21 -19967.823800   2808.565050 -21666.643524   -743.909518
PE24  24822.888923  14974.038349   6019.572749   -705.937731
PE25  20140.658327  -2564.889900  21548.662801   -579.858014
PE26 -27339.650750  11305.163000    896.281490  -1337.000882
PE27 -25044.729944 -14088.514708  -7086.673209   -336.861628
PE30 -14485.917092 -22695.263126  12284.214666   -644.429617
PE31  15354.428409  22532.890394 -11506.042309   -499.341369
PE33 -15486.335454  18210.754729  17455.720924   -455.027918
PE34  15263.680090 -18270.858695 -17607.756861   -525.357942
PE36  27540.234492 -10841.313527     15.430227   -397.256077
PG01  -2746.718540 -14518.332813 -22367.739607    328.261607
PG02 -18380.648593  15437.345871  12191.270692   -651.943727
PG03  -9925.930732 -21578.118557 -12121.166371   -297.686684
PG04      1.805576 -24465.825346  10234.546731   -149.947908
PG05  -3130.498426  16461.275943  20402.659111    -87.871062
PG06 -25905.581863   5907.354900  -1275.019648    370.342021
PG07 -18883.890173  -8008.775288  17545.479859    320.388545
PG08   4574.784823 -25856.107769  -2442.977684    -74.777484
PG09  -8558.744530 -17735.733140  17740.499181   -322.441203
PG10  21364.200967   8348.960202 -13496.531874   -479.220125
PG11 -20522.623579  12404.211883  11387.421188    -11.719891
PG12   5678.136918  21753.337054 -14493.937964   -241.061162
PG13 -13252.935926  22261.230495   5248.207150    341.801153
PG14 -21295.982532  -9867.942327 -12525.391301   -112.020536
PG15  -1418.936206  26245.330347  -2769.151131    -48.171692
PG16   9581.096857 -11635.244018  21562.075727   -513.250733
PG17 -14994.159966   -762.688152 -21483.576896    632.765014
PG18  18519.434825   7710.425438  17458.757706    123.584723
PG19 -16872.606533   8040.074298 -19035.374526    179.152014
PG20 -13670.194268   8834.849190  20955.090918    506.081017
PG21   7403.816976 -16460.571120 -18606.140567    161.219736
PG22  16576.498152 -11380.453906 -16845.701988    286.516881
PG23  20934.945305  15922.450233  -4117.511125    -31.315017
PG24   -915.750060  16705.292314 -20858.845340    205.669767
PG25  17139.748557  20247.603373  -3375.422782    345.079798
PG26  17466.125081  -3761.022427  19657.784456    216.218385
PG27  12506.179128 -20938.681976   9807.820475    219.590928
PG28 -18340.914636  -2194.651777 -18487.380383    330.382478
PG29   6867.627806  17751.708532  18439.969912   -530.273549
PG30 -24962.903418   -949.751898   9478.314446   -533.154804
PG31  25849.609736  -7037.161975   1054.594482   -184.381108
PG32  15853.688261  -2358.967050 -20998.513719   -167.348902
PJ02 -24382.466407  16607.175212 -25555.433056     -1.295087
PJ03 -26608.113011  32851.149106   6725.471814     -3.275976
PR01  11817.480141  12584.206052 -18769.800398     10.927662
PR02   9217.431566  -8115.959915 -22303.098283    523.149771
PR03   1552.574703 -22506.856325 -11805.782696     59.597213
PR04  -6702.047669 -24085.935503   5072.861061    149.404225
PR05 -11279.621971 -12472.239088  19184.893427     95.667709
PR07  -1235.345568  22904.077329  11248.789961     37.340484
PR08   6815.001636  24057.156469  -5054.195836    -66.023107
PR09 -20055.523464   1538.008975 -15715.170284     63.933006
PR11  12977.068365  13160.888239 -17557.107922     34.315677
PR12  23966.652910   8722.881687   -712.300228     19.150653
PR13  20754.703624   -503.075626  14808.569819    -24.262417
PR14   4362.256321 -10264.078326  22956.757486     24.999213
PR15 -13614.236214 -13395.914589  16935.615899     94.882889
PR17  14126.098099 -18319.946022 -10793.731994    540.481885
PR18    339.292665 -13051.639628 -21896.309462    122.420457
PR19 -12768.691374  -2367.532508 -21960.987995   -195.029820
PR20 -21090.327266  12311.107873  -7435.774213    -73.919641
PR21 -13170.162713  18113.568776  12175.700026   -314.633689
PR24  20835.663097 -13114.271025   6718.835499    101.846279
EOF
